[Satellite]
VERSION=1.1
NAME=GLOBALSTAR M069
NICKNAME=GLOBALSTAR M069
TLE1=1 31573U 07020C   15054.61885230 -.00000086  00000-0  10101-3 0  9997
TLE2=2 31573  51.9946 130.0966 0001992 153.2392 318.2047 12.62261798358809
